NORAD_CAT_ID,OBJECT_NAME,OBJECT_TYPE,EPOCH,MEAN_MOTION,ECCENTRICITY,INCLINATION,RA_OF_ASC_NODE,ARG_OF_PERICENTER,MEAN_ANOMALY,BSTAR,MEAN_MOTION_DOT,MEAN_MOTION_DDOT,TLE_LINE0,TLE_LINE1,TLE_LINE2,SEMIMAJOR_AXIS,PERIOD,APOGEE,PERIGEE,DECAYED
53267.0,STARLINK-4060,PAYLOAD,2023-01-01 08:13:21,15.08826726,0.0002625,53.221,16.5904,31.2389,328.8759,-3.8666e-05,-9.04e-06,0.0,0 STARLINK-4060,1 53267U 22086AB  23001.34260810 -.00000904  00000-0 -38666-4 0  9999,2 53267  53.2210  16.5904 0002625  31.2389 328.8759 15.08826726 25266,6917.920999999999,95.438,541.602,537.97,0.0
53267.0,STARLINK-4060,PAYLOAD,2023-01-01 17:45:40,15.08826954,0.0002683999999999,53.2201,14.8052,32.8583,327.2576,-0.00010874,-2.018e-05,0.0,0 STARLINK-4060,1 53267U 22086AB  23001.74005283 -.00002018  00000-0 -10874-3 0  9992,2 53267  53.2201  14.8052 0002684  32.8583 327.2576 15.08826954 25509,6917.92,95.438,541.6419999999998,537.928,0.0
53267.0,STARLINK-4060,PAYLOAD,2023-01-02 01:42:35,15.0884182,0.0002712,53.219,13.3174,27.0055,333.1077,-0.00017483,-3.07e-05,0.0,0 STARLINK-4060,1 53267U 22086AB  23002.07124561 -.00003070  00000-0 -17483-3 0  9992,2 53267  53.2190  13.3174 0002712  27.0055 333.1077 15.08841820 25373,6917.875,95.437,541.616,537.864,0.0
53267.0,STARLINK-4060,PAYLOAD,2023-01-02 06:28:44,15.08847353,0.0002696,53.2196,12.425999999999998,30.1607,329.954,-0.00011282,-2.084e-05,0.0,0 STARLINK-4060,1 53267U 22086AB  23002.26996021 -.00002084  00000-0 -11282-3 0  9996,2 53267  53.2196  12.4260 0002696  30.1607 329.9540 15.08847353 25403,6917.858,95.437,541.5880000000002,537.8580000000002,0.0
53267.0,STARLINK-4060,PAYLOAD,2023-01-02 08:04:07,15.08848891,0.0002674,53.2201,12.1291,33.3536,326.7625,-0.00011281,-2.084e-05,0.0,0 STARLINK-4060,1 53267U 22086AB  23002.33619903 -.00002084  00000-0 -11281-3 0  9994,2 53267  53.2201  12.1291 0002674  33.3536 326.7625 15.08848891 25590,6917.853,95.437,541.568,537.868,0.0
53267.0,STARLINK-4060,PAYLOAD,2023-01-02 17:36:26,15.08848102,0.0002739,53.2197,10.3446,32.0382,328.0776,-8.8563e-06,-4.3e-06,0.0,0 STARLINK-4060,1 53267U 22086AB  23002.73363603 -.00000430  00000-0 -88563-5 0  9993,2 53267  53.2197  10.3446 0002739  32.0382 328.0776 15.08848102 25657,6917.856,95.437,541.615,537.826,0.0
53267.0,STARLINK-4060,PAYLOAD,2023-01-03 06:19:31,15.08841439,0.0002682,53.22,7.9662,35.2395,324.8774,0.00018744,2.696e-05,0.0,0 STARLINK-4060,1 53267U 22086AB  23003.26356034  .00002696  00000-0  18744-3 0  9998,2 53267  53.2200   7.9662 0002682  35.2395 324.8774 15.08841439 25737,6917.876,95.437,541.596,537.886,0.0
53267.0,STARLINK-4060,PAYLOAD,2023-01-03 17:27:14,15.08832829,0.0002743,53.2192,5.8856,36.5792,323.5387,0.00026976,4.007e-05,0.0,0 STARLINK-4060,1 53267U 22086AB  23003.72724982  .00004007  00000-0  26976-3 0  9994,2 53267  53.2192   5.8856 0002743  36.5792 323.5387 15.08832829 25629,6917.901999999999,95.438,541.665,537.87,0.0
53267.0,STARLINK-4060,PAYLOAD,2023-01-04 09:21:05,15.08842984,0.0002989,53.2209,2.9127,38.7368,321.3838,0.00014634,2.041e-05,0.0,0 STARLINK-4060,1 53267U 22086AB  23004.38964766  .00002041  00000-0  14634-3 0  9997,2 53267  53.2209   2.9127 0002989  38.7368 321.3838 15.08842984 25903,6917.871,95.437,541.804,537.669,0.0
53267.0,STARLINK-4060,PAYLOAD,2023-01-04 17:18:00,15.08854143,0.0003166,53.2219,1.4267,38.8786,321.2433,0.00032832,4.943e-05,0.0,0 STARLINK-4060,1 53267U 22086AB  23004.72084239  .00004943  00000-0  32832-3 0  9996,2 53267  53.2219   1.4267 0003166  38.8786 321.2433 15.08854143 25771,6917.837,95.437,541.8919999999998,537.512,0.0
53267.0,STARLINK-4060,PAYLOAD,2023-01-05 09:11:51,15.08868817,0.000289,53.2212,358.4518,41.4884,318.6327,0.0005355,8.251e-05,0.0,0 STARLINK-4060,1 53267U 22086AB  23005.38323064  .00008251  00000-0  53550-3 0  9997,2 53267  53.2212 358.4518 0002890  41.4884 318.6327 15.08868817 26057,6917.792,95.436,541.6569999999998,537.658,0.0
53267.0,STARLINK-4060,PAYLOAD,2023-01-06 05:51:51,15.08841776,0.0002622,53.2193,354.5859,36.0373,324.0795,-0.00032616,-5.476e-05,0.0,0 STARLINK-4060,1 53267U 22086AB  23006.24434864 -.00005476  00000-0 -32616-3 0  9992,2 53267  53.2193 354.5859 0002622  36.0373 324.0795 15.08841776 26006,6917.875,95.437,541.554,537.9259999999998,0.0
53267.0,STARLINK-4060,PAYLOAD,2023-01-06 09:02:38,15.08832286,0.000249,53.2206,353.9918,29.7707,330.3427,-0.00036586,-6.105e-05,0.0,0 STARLINK-4060,1 53267U 22086AB  23006.37682955 -.00006105  00000-0 -36586-3 0  9992,2 53267  53.2206 353.9918 0002490  29.7707 330.3427 15.08832286 26203,6917.904,95.438,541.492,538.0459999999998,0.0
53267.0,STARLINK-4060,PAYLOAD,2023-01-07 05:42:39,15.08848296,0.0002538,53.2193,350.1257,27.5048,332.6078,0.001235,0.00019426,0.0,0 STARLINK-4060,1 53267U 22086AB  23007.23795562  .00019426  00000-0  12350-2 0  9997,2 53267  53.2193 350.1257 0002538  27.5048 332.6078 15.08848296 26339,6917.855,95.437,541.476,537.964,0.0
53267.0,STARLINK-4060,PAYLOAD,2023-01-07 08:53:25,15.08854063,0.0002488,53.2194,349.532,27.1047,333.0075,0.0012159,0.00019124,0.0,0 STARLINK-4060,1 53267U 22086AB  23007.37043459  .00019124  00000-0  12159-2 0  9995,2 53267  53.2194 349.5320 0002488  27.1047 333.0075 15.08854063 26175,6917.837,95.437,541.424,537.981,0.0
53267.0,STARLINK-4060,PAYLOAD,2023-01-07 23:11:54,15.08832815,0.0002335,53.219,346.8536,37.3399,322.7755,0.00086153,0.00013447,0.0,0 STARLINK-4060,1 53267U 22086AB  23007.96660431  .00013447  00000-0  86153-3 0  9993,2 53267  53.2190 346.8536 0002335  37.3399 322.7755 15.08832815 26265,6917.901999999999,95.438,541.383,538.1519999999998,0.0
53267.0,STARLINK-4060,PAYLOAD,2023-01-08 07:08:50,15.08834565,0.0002429,53.2185,345.3673,31.5024,328.6113,0.00048598,7.454e-05,0.0,0 STARLINK-4060,1 53267U 22086AB  23008.29780636  .00007454  00000-0  48598-3 0  9992,2 53267  53.2185 345.3673 0002429  31.5024 328.6113 15.08834565 26492,6917.897,95.438,541.442,538.082,0.0
53267.0,STARLINK-4060,PAYLOAD,2023-01-08 15:05:46,15.08846767,0.000246,53.219,343.881,31.9835,328.1306,0.0010284,0.0001612,0.0,0 STARLINK-4060,1 53267U 22086AB  23008.62900670  .00016120  00000-0  10284-2 0  9991,2 53267  53.2190 343.8810 0002460  31.9835 328.1306 15.08846767 26545,6917.86,95.437,541.4259999999998,538.023,0.0
53267.0,STARLINK-4060,PAYLOAD,2023-01-08 23:02:41,15.08845582,0.000242,53.2192,342.3944,30.5073,329.606,0.00085626,0.00013368,0.0,0 STARLINK-4060,1 53267U 22086AB  23008.96020728  .00013368  00000-0  85626-3 0  9999,2 53267  53.2192 342.3944 0002420  30.5073 329.6060 15.08845582 26417,6917.863,95.437,541.4019999999998,538.054,0.0
53267.0,STARLINK-4060,PAYLOAD,2023-01-09 06:59:37,15.08844733,0.0002531,53.219,340.9074,30.8946,329.2195,0.00041021,6.247e-05,0.0,0 STARLINK-4060,1 53267U 22086AB  23009.29140681  .00006247  00000-0  41021-3 0  9996,2 53267  53.2190 340.9074 0002531  30.8946 329.2195 15.08844733 26645,6917.866,95.437,541.482,537.98,0.0
53267.0,STARLINK-4060,PAYLOAD,2023-01-09 14:56:33,15.08851487,0.0002496,53.2185,339.4208,34.792,325.3235,0.00049637,7.623e-05,0.0,0 STARLINK-4060,1 53267U 22086AB  23009.62260491  .00007623  00000-0  49637-3 0  9995,2 53267  53.2185 339.4208 0002496  34.7920 325.3235 15.08851487 26518,6917.845,95.437,541.437,537.984,0.0
53267.0,STARLINK-4060,PAYLOAD,2023-01-10 06:50:24,15.08838672,0.0002593,53.2198,336.4474,32.9725,327.1428,7.9682e-05,9.8e-06,0.0,0 STARLINK-4060,1 53267U 22086AB  23010.28500836  .00000980  00000-0  79682-4 0  9992,2 53267  53.2198 336.4474 0002593  32.9725 327.1428 15.08838672 26611,6917.884,95.438,541.543,537.956,0.0
53267.0,STARLINK-4060,PAYLOAD,2023-01-10 14:47:20,15.08835812,0.0002512,53.2196,334.9618,32.874,327.2408,-3.3051e-05,-8.14e-06,0.0,0 STARLINK-4060,1 53267U 22086AB  23010.61620953 -.00000814  00000-0 -33051-4 0  9990,2 53267  53.2196 334.9618 0002512  32.8740 327.2408 15.08835812 26846,6917.893,95.438,541.496,538.02,0.0
53267.0,STARLINK-4060,PAYLOAD,2023-01-11 05:05:47,15.08854342,0.000186,53.219,332.2866,35.6347,324.4769,0.00033089,4.984e-05,0.0,0 STARLINK-4060,1 53267U 22086AB  23011.21236039  .00004984  00000-0  33089-3 0  9995,2 53267  53.2190 332.2866 0001860  35.6347 324.4769 15.08854342 26753,6917.837,95.437,540.988,538.415,0.0
53267.0,STARLINK-4060,PAYLOAD,2023-01-12 01:45:49,15.08844505,0.0002339,53.218,328.4207,37.2318,322.8836,0.00022845,3.35e-05,0.0,0 STARLINK-4060,1 53267U 22086AB  23012.07348841  .00003350  00000-0  22845-3 0  9999,2 53267  53.2180 328.4207 0002339  37.2318 322.8836 15.08844505 26887,6917.866999999998,95.437,541.35,538.114,0.0
53267.0,STARLINK-4060,PAYLOAD,2023-01-12 14:28:54,15.08842262,0.0002417,53.2169,326.0457,34.0582,326.0565,0.00023529,3.459e-05,0.0,0 STARLINK-4060,1 53267U 22086AB  23012.60340862  .00003459  00000-0  23529-3 0  9993,2 53267  53.2169 326.0457 0002417  34.0582 326.0565 15.08842262 27143,6917.873000000001,95.437,541.411,538.066,0.0
53267.0,STARLINK-4060,PAYLOAD,2023-01-13 00:01:14,15.08825589,0.0002056,53.2176,324.2581,44.2575,315.8582,-0.00010612,-1.976e-05,0.0,0 STARLINK-4060,1 53267U 22086AB  23013.00085839 -.00001976  00000-0 -10612-3 0  9991,2 53267  53.2176 324.2581 0002056  44.2575 315.8582 15.08825589 27028,6917.924,95.438,541.212,538.367,0.0
53267.0,STARLINK-4060,PAYLOAD,2023-01-13 03:12:00,15.08832684,0.0001916999999999,53.2171,323.6633,48.5831,311.5326,0.0002384999999999,3.509e-05,0.0,0 STARLINK-4060,1 53267U 22086AB  23013.13333785  .00003509  00000-0  23850-3 0  9991,2 53267  53.2171 323.6633 0001917  48.5831 311.5326 15.08832684 27046,6917.903,95.438,541.094,538.442,0.0
53267.0,STARLINK-4060,PAYLOAD,2023-01-14 06:13:33,15.08865279,0.0001999,53.217,318.6061,56.0475,304.0707,0.0013626,0.00021479,0.0,0 STARLINK-4060,1 53267U 22086AB  23014.25941899  .00021479  00000-0  13626-2 0  9991,2 53267  53.2170 318.6061 0001999  56.0475 304.0707 15.08865279 27217,6917.803000000001,95.436,541.0509999999999,538.285,0.0
